[{"OBJECT_NAME":"OBJECT D","OBJECT_ID":"2024-174D","EPOCH":"2026-03-10T00:15:10.483200","MEAN_MOTION":15.28039787,"ECCENTRICITY":0.00110644,"INCLINATION":97.4441,"RA_OF_ASC_NODE":80.4677,"ARG_OF_PERICENTER":212.9968,"MEAN_ANOMALY":147.0582,"EPHEMERIS_TYPE":0,"CLASSIFICATION_TYPE":"U","NORAD_CAT_ID":61241,"ELEMENT_SET_NO":999,"REV_AT_EPOCH":8076,"BSTAR":0.00036340099,"MEAN_MOTION_DOT":9.884e-5,"MEAN_MOTION_DDOT":0},{"OBJECT_NAME":"STARLINK-34770","OBJECT_ID":"2025-161X","EPOCH":"2026-03-09T22:17:40.550784","MEAN_MOTION":15.30208306,"ECCENTRICITY":7.401e-5,"INCLINATION":53.1587,"RA_OF_ASC_NODE":293.2909,"ARG_OF_PERICENTER":99.5547,"MEAN_ANOMALY":260.5537,"EPHEMERIS_TYPE":0,"CLASSIFICATION_TYPE":"U","NORAD_CAT_ID":65036,"ELEMENT_SET_NO":999,"REV_AT_EPOCH":3426,"BSTAR":0.00018363822,"MEAN_MOTION_DOT":5.085e-5,"MEAN_MOTION_DDOT":0}]
